[{"OBJECT_NAME":"STARLINK-2135","OBJECT_ID":"2021-005BM","EPOCH":"2026-03-09T06:41:25.174176","MEAN_MOTION":15.06388595,"ECCENTRICITY":0.00014279,"INCLINATION":53.0558,"RA_OF_ASC_NODE":33.4642,"ARG_OF_PERICENTER":97.2459,"MEAN_ANOMALY":262.8693,"EPHEMERIS_TYPE":0,"CLASSIFICATION_TYPE":"U","NORAD_CAT_ID":47408,"ELEMENT_SET_NO":999,"REV_AT_EPOCH":28340,"BSTAR":6.4833365e-5,"MEAN_MOTION_DOT":6.84e-6,"MEAN_MOTION_DDOT":0},{"OBJECT_NAME":"ISTSAT-1","OBJECT_ID":"2024-128D","EPOCH":"2026-03-09T22:00:43.506144","MEAN_MOTION":15.10231455,"ECCENTRICITY":0.00491528,"INCLINATION":61.9882,"RA_OF_ASC_NODE":196.777,"ARG_OF_PERICENTER":111.8391,"MEAN_ANOMALY":248.7942,"EPHEMERIS_TYPE":0,"CLASSIFICATION_TYPE":"U","NORAD_CAT_ID":60238,"ELEMENT_SET_NO":999,"REV_AT_EPOCH":9146,"BSTAR":0.00064802971,"MEAN_MOTION_DOT":0.0001075,"MEAN_MOTION_DDOT":0}]
